SAC-D
1 37673U 11024A   13313.44098403 +.00000000 +00000+0 +13995-4 6  9094
2 37673  98.0134 318.8055 0001394  84.7701 148.1372 14.72334178129432
